OBJECT_NAME,OBJECT_ID,EPOCH,MEAN_MOTION,ECCENTRICITY,INCLINATION,RA_OF_ASC_NODE,ARG_OF_PERICENTER,MEAN_ANOMALY,EPHEMERIS_TYPE,CLASSIFICATION_TYPE,NORAD_CAT_ID,ELEMENT_SET_NO,REV_AT_EPOCH,BSTAR,MEAN_MOTION_DOT,MEAN_MOTION_DDOT
ROBUSTA-3A (MEDITERRANEE),2024-128J,2026-06-27T06:07:19.313760,15.11766130,.00400455,61.9840,172.6375,130.2570,230.2039,0,U,60243,999,10794,.33997581E-3,.5716E-4,0
CATSAT,2024-125J,2026-06-27T03:38:11.874048,15.59863021,.00222456,97.2080,30.7896,145.0466,215.2257,0,U,60246,999,10894,.87918617E-3,.71867E-3,0
GAOFEN-11 05,2024-130A,2026-06-27T07:06:28.620576,15.23371302,.00038329,97.4003,256.4700,37.9361,322.2145,0,U,60249,999,8700,.25772487E-3,.6058E-4,0
STARLINK-32138,2024-131A,2026-06-26T22:47:56.307264,15.31697173,.00009336,53.1599,264.4513,92.9041,267.2067,0,U,60255,999,10875,.46258979E-4,.1071E-4,0
STARLINK-32212,2024-131B,2026-06-26T22:52:55.248672,15.30187055,.00012095,53.1602,265.1921,97.2920,262.8218,0,U,60256,999,10844,-.14461548E-4,-.787E-5,0
STARLINK-32166,2024-131C,2026-06-26T23:02:02.596992,15.30181962,.00013254,53.1601,265.2194,96.8908,263.2243,0,U,60257,999,10844,-.69282959E-4,-.2409E-4,0
STARLINK-32200,2024-131D,2026-06-26T22:49:52.907520,15.30193071,.00011932,53.1607,265.1666,94.7352,265.3785,0,U,60258,999,10844,-.67753975E-4,-.2365E-4,0
STARLINK-32207,2024-131E,2026-06-26T22:46:50.774592,15.30185334,.00012772,53.1619,265.1635,79.4275,280.6870,0,U,60259,999,10844,-.17871223E-4,-.888E-5,0
STARLINK-32125,2024-131F,2026-06-26T12:09:34.776864,15.30185337,.0001033,53.1588,266.6621,87.0675,273.0444,0,U,60260,999,10838,-.26083E-4,-.1131E-4,0
STARLINK-32160,2024-131G,2026-06-26T22:54:25.066656,15.30202426,.00011225,53.1607,265.1803,89.3894,270.7236,0,U,60261,999,10849,.66838246E-4,.1621E-4,0
STARLINK-32163,2024-131H,2026-06-26T12:50:33.700128,15.31710503,.0000997,53.1595,266.1237,51.5470,308.5621,0,U,60262,999,10839,-.10856E-3,-.3733E-4,0
STARLINK-32148,2024-131J,2026-06-26T22:00:01.998720,15.31715556,.0001097,53.1597,264.7027,90.7321,34.3339,0,U,60263,999,587,-.52377E-3,-.1659E-3,0
STARLINK-32121,2024-131K,2026-06-26T15:44:41.210592,15.31692580,.00010718,53.1592,266.1690,105.2174,254.8946,0,U,60264,999,10845,.10764259E-3,.2976E-4,0
STARLINK-32120,2024-131L,2026-06-26T15:31:18.285024,15.29359294,.00013545,53.1605,266.8177,92.2548,267.8608,0,U,60265,999,10844,.22003663E-4,.279E-5,0
STARLINK-32205,2024-131M,2026-06-26T23:28:15.919392,15.31693227,.00012153,53.1601,264.6326,91.5681,268.5460,0,U,60266,999,10845,-.15983892E-4,-.861E-5,0
STARLINK-32158,2024-131N,2026-06-26T23:30:44.418528,15.30199084,.00014043,53.1597,264.6264,96.7449,263.3712,0,U,60267,999,10835,-.93676774E-4,-.3132E-4,0
STARLINK-32167,2024-131P,2026-06-26T23:09:28.435680,15.30185559,.00010244,53.1610,264.5518,88.8713,271.2405,0,U,60268,999,10844,-.19847084E-4,-.946E-5,0
STARLINK-32144,2024-131Q,2026-06-26T22:27:45.877824,15.31694838,.0000959,53.1604,264.3580,84.2143,275.8968,0,U,60269,999,10850,.10607E-4,-.36E-6,0
STARLINK-32211,2024-131R,2026-06-26T22:57:28.794528,15.30183584,.00009778,53.1603,265.2083,113.6859,246.4245,0,U,60270,999,10844,-.17067119E-4,-.864E-5,0
STARLINK-32164,2024-131S,2026-06-26T23:03:33.359328,15.30184527,.000123,53.1595,265.2221,87.9830,272.1312,0,U,60271,999,10834,-.1167474E-5,-.394E-5,0
STARLINK-32128,2024-131T,2026-06-26T23:26:11.359104,15.30185266,.0001106,53.1594,264.6140,85.9349,274.1778,0,U,60272,999,10845,-.9257532E-5,-.633E-5,0
STARLINK-32206,2024-131U,2026-06-26T22:48:21.764160,15.30185497,.00016034,53.1629,265.1647,97.2108,262.9075,0,U,60273,999,10844,-.1100885E-4,-.685E-5,0
STARLINK-32155,2024-131V,2026-06-26T15:31:44.444352,15.31695555,.00016092,53.1593,266.1105,57.3192,302.7965,0,U,60274,999,10830,.2487859E-5,-.288E-5,0
STARLINK-32152,2024-131W,2026-06-26T23:21:35.697312,15.30204840,.00013351,53.1595,264.5868,100.8827,259.2324,0,U,60275,999,10835,.67613403E-4,.1644E-4,0
STARLINK-32154,2024-131X,2026-06-26T23:12:30.647232,15.30185914,.00010311,53.1603,264.5485,87.6005,272.5113,0,U,60276,999,10845,-.3762448E-4,-.1473E-4,0
STARLINK-32135,2024-131Y,2026-06-26T12:38:27.323232,15.30156338,.0001336,53.1600,266.7808,96.8645,263.2508,0,U,60277,999,10838,.21163E-3,.5905E-4,0
STARLINK-32156,2024-132A,2026-06-26T23:23:10.241376,15.30207796,.00013958,53.1604,264.7232,103.2804,256.8352,0,U,60278,999,10951,-.18495194E-3,-.5834E-4,0
STARLINK-32010,2024-132B,2026-06-26T23:00:55.973952,15.31671404,.00007014,53.1600,264.6348,46.7596,313.3463,0,U,60279,999,10829,.15461581E-3,.4432E-4,0
STARLINK-32118,2024-132C,2026-06-26T15:23:47.412672,15.30189041,.00012766,53.1602,266.2001,99.1261,260.9885,0,U,60280,999,10824,-.563098E-5,-.526E-5,0
STARLINK-32038,2024-132D,2026-06-26T15:26:50.004384,15.30186090,.00010482,53.1602,266.2137,71.7084,288.4030,0,U,60281,999,10824,-.69913738E-4,-.2428E-4,0
