ROBUSTA-3A (MEDITERRAN*)
1 60243U 24128J   26178.25508465  .00005716  00000+0  33998-3 0  9994
2 60243  61.9840 172.6375 0040045 130.2570 230.2039 15.11766130107948
CATSAT                  
1 60246U 24125J   26178.15152632  .00071867  00000+0  87919-3 0  9996
2 60246  97.2080  30.7896 0022245 145.0466 215.2257 15.59863021108946
GAOFEN-11 05            
1 60249U 24130A   26178.29616459  .00006058  00000+0  25772-3 0  9991
2 60249  97.4003 256.4700 0003832  37.9361 322.2145 15.23371302 87006
STARLINK-32138          
1 60255U 24131A   26177.94995726  .00001071  00000+0  46259-4 0  9991
2 60255  53.1599 264.4513 0000933  92.9041 267.2067 15.31697173108751
STARLINK-32212          
1 60256U 24131B   26177.95341723 -.00000787  00000+0 -14462-4 0  9991
2 60256  53.1602 265.1921 0001209  97.2920 262.8218 15.30187055108446
STARLINK-32166          
1 60257U 24131C   26177.95975228 -.00002409  00000+0 -69283-4 0  9999
2 60257  53.1601 265.2194 0001325  96.8908 263.2243 15.30181962108443
STARLINK-32200          
1 60258U 24131D   26177.95130680 -.00002365  00000+0 -67754-4 0  9997
2 60258  53.1607 265.1666 0001193  94.7352 265.3785 15.30193071108444
STARLINK-32207          
1 60259U 24131E   26177.94919878 -.00000888  00000+0 -17871-4 0  9994
2 60259  53.1619 265.1635 0001277  79.4275 280.6870 15.30185334108449
STARLINK-32125          
1 60260U 24131F   26177.50665251 -.00001131  00000+0 -26083-4 0  9998
2 60260  53.1588 266.6621 0001033  87.0675 273.0444 15.30185337108385
STARLINK-32160          
1 60261U 24131G   26177.95445679  .00001621  00000+0  66838-4 0  9992
2 60261  53.1607 265.1803 0001122  89.3894 270.7236 15.30202426108495
STARLINK-32163          
1 60262U 24131H   26177.53511227 -.00003733  00000+0 -10856-3 0  9996
2 60262  53.1595 266.1237 0000997  51.5470 308.5621 15.31710503108392
STARLINK-32148          
1 60263U 24131J   26177.91668980 -.00016590  00000+0 -52377-3 0  9997
2 60263  53.1597 264.7027 0001097  90.7321  34.3339 15.31715556  5870
STARLINK-32121          
1 60264U 24131K   26177.65603253  .00002976  00000+0  10764-3 0  9996
2 60264  53.1592 266.1690 0001071 105.2174 254.8946 15.31692580108450
STARLINK-32120          
1 60265U 24131L   26177.64673941  .00000279  00000+0  22004-4 0  9992
2 60265  53.1605 266.8177 0001354  92.2548 267.8608 15.29359294108444
STARLINK-32205          
1 60266U 24131M   26177.97796203 -.00000861  00000+0 -15984-4 0  9994
2 60266  53.1601 264.6326 0001215  91.5681 268.5460 15.31693227108454
STARLINK-32158          
1 60267U 24131N   26177.97968077 -.00003132  00000+0 -93677-4 0  9994
2 60267  53.1597 264.6264 0001404  96.7449 263.3712 15.30199084108352
STARLINK-32167          
1 60268U 24131P   26177.96491245 -.00000946  00000+0 -19847-4 0  9999
2 60268  53.1610 264.5518 0001024  88.8713 271.2405 15.30185559108443
STARLINK-32144          
1 60269U 24131Q   26177.93594766 -.00000036  00000+0  10607-4 0  9993
2 60269  53.1604 264.3580 0000959  84.2143 275.8968 15.31694838108504
STARLINK-32211          
1 60270U 24131R   26177.95658327 -.00000864  00000+0 -17067-4 0  9998
2 60270  53.1603 265.2083 0000977 113.6859 246.4245 15.30183584108449
STARLINK-32164          
1 60271U 24131S   26177.96080277 -.00000394  00000+0 -11675-5 0  9991
2 60271  53.1595 265.2221 0001230  87.9830 272.1312 15.30184527108347
STARLINK-32128          
1 60272U 24131T   26177.97652036 -.00000633  00000+0 -92575-5 0  9995
2 60272  53.1594 264.6140 0001106  85.9349 274.1778 15.30185266108456
STARLINK-32206          
1 60273U 24131U   26177.95025190 -.00000685  00000+0 -11009-4 0  9998
2 60273  53.1629 265.1647 0001603  97.2108 262.9075 15.30185497108445
STARLINK-32155          
1 60274U 24131V   26177.64704218 -.00000288  00000+0  24879-5 0  9998
2 60274  53.1593 266.1105 0001609  57.3192 302.7965 15.31695555108300
STARLINK-32152          
1 60275U 24131W   26177.97332983  .00001644  00000+0  67613-4 0  9999
2 60275  53.1595 264.5868 0001335 100.8827 259.2324 15.30204840108358
STARLINK-32154          
1 60276U 24131X   26177.96702138 -.00001473  00000+0 -37624-4 0  9993
2 60276  53.1603 264.5485 0001031  87.6005 272.5113 15.30185914108452
STARLINK-32135          
1 60277U 24131Y   26177.52670513  .00005905  00000+0  21163-3 0  9999
2 60277  53.1600 266.7808 0001336  96.8645 263.2508 15.30156338108388
STARLINK-32156          
1 60278U 24132A   26177.97442409 -.00005834  00000+0 -18495-3 0  9998
2 60278  53.1604 264.7232 0001395 103.2804 256.8352 15.30207796109513
STARLINK-32010          
1 60279U 24132B   26177.95898118  .00004432  00000+0  15462-3 0  9991
2 60279  53.1600 264.6348 0000701  46.7596 313.3463 15.31671404108294
STARLINK-32118          
1 60280U 24132C   26177.64152098 -.00000526  00000+0 -56310-5 0  9990
2 60280  53.1602 266.2001 0001276  99.1261 260.9885 15.30189041108241
STARLINK-32038          
1 60281U 24132D   26177.64363431 -.00002428  00000+0 -69914-4 0  9992
2 60281  53.1602 266.2137 0001048  71.7084 288.4030 15.30186090108246
